[{"OBJECT_NAME":"PHISAT 2","OBJECT_ID":"2024-149C","EPOCH":"2026-03-09T18:55:12.732384","MEAN_MOTION":15.29548632,"ECCENTRICITY":0.00011753,"INCLINATION":97.3806,"RA_OF_ASC_NODE":148.6498,"ARG_OF_PERICENTER":168.623,"MEAN_ANOMALY":191.5037,"EPHEMERIS_TYPE":0,"CLASSIFICATION_TYPE":"U","NORAD_CAT_ID":60470,"ELEMENT_SET_NO":999,"REV_AT_EPOCH":8679,"BSTAR":0.00031420974,"MEAN_MOTION_DOT":8.925e-5,"MEAN_MOTION_DDOT":0},{"OBJECT_NAME":"STARLINK-35981","OBJECT_ID":"2025-270L","EPOCH":"2026-03-09T23:24:53.936928","MEAN_MOTION":15.275888,"ECCENTRICITY":6.319e-5,"INCLINATION":42.9986,"RA_OF_ASC_NODE":54.2095,"ARG_OF_PERICENTER":156.9275,"MEAN_ANOMALY":203.1605,"EPHEMERIS_TYPE":0,"CLASSIFICATION_TYPE":"U","NORAD_CAT_ID":66598,"ELEMENT_SET_NO":999,"REV_AT_EPOCH":1760,"BSTAR":0.0010634199,"MEAN_MOTION_DOT":0.00029124,"MEAN_MOTION_DDOT":0}]
